#dP2021  6 14 12  0  0.00000000      96 __u+U ITR00 EXT  IAC
## 2162 129600.00000000   900.00000000 59379 0.5000000000000
+  116   C06C07C08C09C10C11C12C13C14C16C19C20C21C22C23C24C25
+        C26C27C28C29C30C32C33C34C35C36C37C38C39C40C41C42C43
+        C44C45C46E01E02E03E04E05E07E08E09E11E12E13E14E15E18
+        E19E21E24E25E26E27E30E31E33E36G01G02G03G04G05G06G07
+        G08G09G10G12G13G14G15G16G17G18G19G20G21G22G23G24G25
+        G26G27G28G29G30G31G32J01J02J03R01R02R03R04R05R07R08
+        R09R11R12R13R14R15R16R17R18R19R20R21R22R24  0  0  0
++        10  8 10 10  9  9  9  9 10 11  9  8  8  8  9 10  9
++         7  8  9  7  8  9 10  8 10  7  8 10  7 11  8  9 11
++         8  9  9  7  7  7  8  8  6  7  8  8  7  7  9  9  8
++         8  6  8  8  8  7  7  7  8  8  7  7  8  7  7  7  8
++         7  7  8  8  8  7  8  9  8  9  8  7  8  8  9  7  8
++         9  7  8  7  8  7  8 12  8 10  7  7  9  7  8  6  8
++        10  9  8  9  9  8  7  8  8  9  9  8 10  6  0  0  0
%c M  cc GPS ccc cccc cccc cccc cccc ccccc ccccc ccccc ccccc
%c cc cc ccc ccc cccc cccc cccc cccc ccccc ccccc ccccc ccccc
%f  0.0000000  0.000000000  0.00000000000  0.000000000000000
%f  0.0000000  0.000000000  0.00000000000  0.000000000000000
%i    0    0    0    0      0      0      0      0         0
%i    0    0    0    0      0      0      0      0         0
/* IAC                                ULTRA-RAPID PREDICTION
/* S/V CLOCKS ARE ALIGNED TO GNSS TIME                      
/* G:C1WC2W R:C1PC2P E:C1XC5X C:C2IC6I J:C1CC2S             
/* PCV:IGS14_2148 OL/AL:FES2004  NONE     YN ORB:CoN CLK:CoN
*  2021 06 15  8 15  0.00000000
PC06 -25260.382636  28375.277396 -18329.232906    505.342451
PC07 -11375.071153  36591.828266 -16729.793420     71.763378
PC08  -8049.737678  19864.243814  36432.082943   -894.569957
PC09 -10981.439088  28311.747203 -29124.212983    446.917870
PC10   -405.578915  41683.426995  -3998.514114    -29.720625
PC11  16064.598040 -17095.662210 -15090.161489    400.840565
PC12  26142.603431  -9665.143380   1617.935773    843.929301
PC13   4158.110102  26250.265142  32897.205341    300.547003
PC14   8691.806961 -25211.273142  -8301.600591    900.054933
PC16 -22406.204346  28929.045120 -21008.255494   -900.117627
PC19  -2461.614678  27765.324367   -996.943654    873.142795
PC20 -12727.436858  19740.196241  15060.947332   -876.197543
PC21  15898.238028    502.018772 -22908.958199   -935.616324
PC22   9558.566288  19906.438316 -17035.163784   -950.151924
PC23 -19427.373854 -19362.185387   5162.273123   -936.340689
PC24  15064.068810  -8311.983511  21971.868655   -893.972947
PC25  -4331.609978 -19885.067993  19083.609337   -900.733976
PC26  24143.994197   6414.649974  12464.424436    892.479085
PC27 -25778.243729   2852.829495 -10346.069677    548.600472
PC28 -13745.649727 -10655.655016 -21824.063919    -62.106992
PC29  -5618.176987  18126.498606  20449.040707    406.354837
PC30 -22398.071375  15271.235571   6661.780874    470.745128
PC32 -15927.650338   -450.041558  22927.760548   -925.254484
PC33   2326.514927 -27805.217725    973.952669   -936.986586
PC34  21945.146564 -15558.620400  -7391.863427   -650.014458
PC35  13770.024806  10469.300445  21880.935687   -232.465542
PC36   3525.682719  19862.313398 -19251.829065   -727.653057
PC37 -24109.083114  -7710.571548 -11713.255924   -875.178793
PC38  -6357.933172  23201.697154  34643.478207    155.398754
PC39 -18892.307180  30491.795892 -22259.382142     31.801310
PC40  -7439.566708  40455.429230  -8874.516998    171.162705
PC41  -9515.779115 -20146.719111  16854.739696   -947.977095
PC42  13005.340529 -19183.103629 -15513.118611   -913.750975
PC43   6196.957380 -18271.927952 -20164.295171   -777.221802
PC44  25612.055547  -3531.325710  10448.179358    240.402133
PC45  19578.775385  19247.962255  -5031.149858    467.708296
PC46 -14088.867776   9113.369004 -22283.402829    223.531358
PE01  -3052.433255 -26486.132788  12860.887054  -1129.632213
PE02   3159.514261  26532.171323 -12748.119436    226.233664
PE03  -7595.353972  26040.210307 -11824.670413   -442.142280
PE04  -8916.179318 -16094.395349  23199.489497   -792.790568
PE05 -19916.296697  20852.687270   6680.433789   -272.806306
PE07  20484.537637  -3596.306078 -21056.130867   -550.079999
PE08   9145.126934  15676.396219 -23373.660619   5985.729831
PE09 -20407.827825   3905.891901  21084.148283   5633.066929
PE11 -29515.436056  -2314.938110   -506.305065   5848.587169
PE12 -19200.601465 -13240.365449 -18244.164322   5159.277691
PE13  29478.107244   2479.058095    919.293990    417.771728
PE14  10389.659004 -25915.206092 -15157.799608  -1466.761748
PE15  19260.715006  13104.092339  18257.980763    808.723009
PE18 -14325.811664  18999.950018   6175.882093  -1606.537254
PE19   9465.574617 -26232.784776   9933.947018    302.712803
PE21  11017.586726 -13922.431153  23684.826196   -670.770857
PE24 -19448.091580  -8149.627107 -20776.381836   -955.738742
PE25 -11148.470332  13723.691254 -23732.319639   -536.979983
PE26  21705.848465 -10031.002419 -17450.026096   1691.234805
PE27  19341.027328   7200.573760  21224.401882    -54.666450
PE30  15671.419454  24540.255048   5342.724944   2862.143434
PE31 -16226.777553 -23943.280178  -6290.539310   -482.224803
PE33   2259.014418 -15990.223813 -24807.355630   -469.159009
PE36 -22327.735379   9575.799892  16914.132328   -221.182367
PG01 -19171.365157 -13979.412928 -12551.951009    657.929578
PG02  -4798.089142  14793.504848  22189.157491   -612.485817
PG03 -12473.674490 -21500.070175   9429.815411   -192.490241
PG04 -10342.668721 -11186.052082  21765.626751   -199.905036
PG05   5240.208973  25659.462246   3645.002729    -44.996982
PG06 -16710.075223   8508.843031  18891.859431     27.183899
PG07 -25933.580188  -6854.137738   -394.864150    178.649638
PG08  -1343.541229 -17940.844094 -19444.877880    -25.127947
PG09 -18515.605932   -234.715471  18991.882684   -351.176723
PG10  13465.138452  -7042.314706 -21644.029063   -142.683352
PG12  10104.523612  23181.274335   8096.479255    -55.224096
PG13  -8157.954863  19868.191227 -15666.666433    145.117260
PG14 -14010.591716   6810.257606 -21517.912821     68.723497
PG15   4214.392577  17995.644514 -19321.347187   -142.263257
PG16   1274.520052 -24920.237425   8153.079062   -341.564881
PG17 -21953.322380  12361.748518  -7983.003378    458.728506
PG18  25878.854649   4533.149804  -4163.052010    346.643440
PG19 -20634.110897  16609.539038   -127.512159     13.613408
PG20   6473.128444  25276.627299   5620.293594    521.157613
PG21 -13231.816585 -14805.083209 -17172.386576    125.142050
PG22  -9682.861697 -24852.082662    317.935430   -588.038400
PG23  16294.191769   5476.595952 -20282.342491     96.613269
PG24  15388.184314  15042.696496 -16066.106861    132.996344
PG25  15680.799132  13358.290993  16648.717014    156.199416
PG26   6697.610495 -19271.177221  16801.447447     98.606147
PG27   9059.118518 -21348.094466 -12783.010187   -147.423493
PG28 -11189.669781  13421.983693 -19513.815432    554.338019
PG29  17648.152869   2064.745586  19707.980671   -364.408618
PG30 -23337.740357   2752.960814 -12538.572383   -439.182737
PG31  14733.269252 -10158.478191  19683.111134   -123.165367
PG32  20881.701976 -14983.718410  -6219.559061     18.410888
PJ01 -31002.428955  25467.492578  17840.789610   -396.216637
PJ02 -20164.344686  21574.176185 -25547.761398     -0.258276
PJ03 -29738.033789  28625.453416  14072.568414     -8.135022
PR01  10929.471780 -20900.388992  -9732.672279     80.902340
PR02   1902.172900 -22954.681771  10943.933567    482.448011
PR03  -7738.618259 -10358.007712  22026.265487     37.734535
PR04 -12669.182865   7889.352801  20718.458671     91.396981
PR05 -10776.463266  21759.434637   7862.204559     73.602852
PR07   7951.690913   9805.078024 -22130.624475    -42.316526
PR08  12735.081090  -7966.343989 -20551.492336    -59.493865
PR09  10344.540998  19735.440644 -12329.498864     -1.964231
PR11  16464.377385   4278.980396  19013.298692    -12.251913
PR12   4287.718449 -11162.658675  22557.514900    237.338486
PR13  -9998.400488 -19532.552986  12998.005892    -56.271011
PR14 -18729.674151 -16625.995111  -4881.986531     65.382087
PR15 -16247.159575  -4027.300762 -19227.487549    103.252986
PR16  -3138.385618  12237.444740 -22198.919493    -16.380370
PR17 -17896.644125  -4277.020882 -17645.561786    432.821131
PR18 -25056.702345   4129.260394  -2677.010352     80.116843
PR19 -19728.853117   9589.691949  13008.297090   -147.815181
PR20   -497.226070  10574.254094  23210.055500    -50.883851
PR21  18846.884246   3671.222523  16799.769468   -216.663555
PR22  25007.920695  -4477.969312   1597.644079   -117.766639
PR24   -589.973294 -10900.663030 -23044.655163     46.601692
EOF
